{"type":"FeatureCollection","features":[{"type":"Feature","properties":{"journey":"waverley-grassmarket","profile":"walking","label":"Walking","minutes":13.8,"distanceM":907,"ascentM":14.4,"descentM":21.3,"worstInclinePct":25.1,"worstInclineAt":"Victoria Terrace","surfaceMix":{"unknown":124,"paving slabs":217,"tarmac":228,"concrete":51,"setts":286},"kerbs":{"lowered":0,"flush":2,"raised":0,"unknown":0},"steps":6,"lifts":0,"unknownM":0,"confidence":0.27,"verdict":"passable","headline":"This is the most direct route that fits your settings.","elevation":[{"d":0,"z":null},{"d":12,"z":null},{"d":29,"z":null},{"d":51,"z":null},{"d":61,"z":null},{"d":62,"z":null},{"d":72,"z":null},{"d":74,"z":null},{"d":80,"z":null},{"d":83,"z":52.4},{"d":98,"z":57.8},{"d":103,"z":57.8},{"d":173,"z":56.4},{"d":225,"z":59.3},{"d":237,"z":60.1},{"d":255,"z":60.8},{"d":275,"z":62},{"d":310,"z":64.6},{"d":331,"z":64.9},{"d":360,"z":75.9},{"d":382,"z":85.8},{"d":396,"z":86},{"d":461,"z":88.5},{"d":508,"z":89.7},{"d":524,"z":90.2},{"d":531,"z":90.5},{"d":536,"z":90.6},{"d":543,"z":90.8},{"d":556,"z":91.3},{"d":561,"z":91.2},{"d":564,"z":91.8},{"d":568,"z":91.9},{"d":581,"z":91.7},{"d":604,"z":88.5},{"d":615,"z":83.6},{"d":617,"z":83.6},{"d":642,"z":82.1},{"d":655,"z":81.4},{"d":656,"z":81.8},{"d":657,"z":81.2},{"d":664,"z":81},{"d":679,"z":80},{"d":699,"z":78.6},{"d":776,"z":71.2},{"d":786,"z":71.2},{"d":823,"z":70.2},{"d":861,"z":68.8},{"d":907,"z":67.3}]},"geometry":{"type":"LineString","coordinates":[[-3.1892774,55.9520119],[-3.1892251,55.9519086],[-3.1891644,55.9517886],[-3.189116,55.9517963],[-3.1890181,55.951603],[-3.189014,55.9515949],[-3.1889749,55.9515177],[-3.1889692,55.9515064],[-3.1889293,55.9514276],[-3.1889215,55.9514106],[-3.1888923,55.9513544],[-3.1888788,55.951329],[-3.1888619,55.9512945],[-3.1890323,55.9512689],[-3.1890089,55.9512248],[-3.1895175,55.9511395],[-3.1896907,55.9511094],[-3.1897991,55.9510905],[-3.1899419,55.9510684],[-3.1900871,55.9510508],[-3.1904265,55.951017],[-3.1904806,55.9510129],[-3.1905332,55.9510071],[-3.1905892,55.9509988],[-3.1906443,55.9509889],[-3.1907224,55.950972],[-3.1908996,55.9509348],[-3.1909544,55.9509229],[-3.1910208,55.9509097],[-3.1910796,55.9508985],[-3.1911186,55.9508935],[-3.191152,55.9508909],[-3.1912177,55.9508905],[-3.1912749,55.950894],[-3.1913553,55.9509],[-3.1914456,55.9508635],[-3.1915386,55.9508266],[-3.191581,55.9508131],[-3.1916321,55.9507978],[-3.1916744,55.9507859],[-3.1917311,55.9507708],[-3.1917918,55.9507559],[-3.191971,55.9507184],[-3.1921427,55.950683],[-3.1920996,55.9506269],[-3.1920078,55.9505033],[-3.1919623,55.9504425],[-3.1919464,55.9504303],[-3.1918889,55.9504038],[-3.1918688,55.9503904],[-3.1918515,55.9503737],[-3.1918159,55.9502805],[-3.1921743,55.9502343],[-3.1921444,55.9501135],[-3.1919426,55.9495437],[-3.1920037,55.9495336],[-3.1922453,55.9494905],[-3.1925166,55.9494516],[-3.1926783,55.9494273],[-3.1929229,55.9493907],[-3.1930361,55.949374],[-3.1931091,55.9493633],[-3.1932119,55.9493492],[-3.1934185,55.9493175],[-3.1933706,55.9492805],[-3.1933568,55.9492564],[-3.1933346,55.9492175],[-3.193282,55.9491078],[-3.1932673,55.9490987],[-3.1932512,55.9490715],[-3.1932536,55.9490559],[-3.1931697,55.9489126],[-3.1931164,55.9488225],[-3.1931085,55.9488052],[-3.1931537,55.9488066],[-3.1931989,55.9488071],[-3.193248,55.9488073],[-3.1933005,55.9488053],[-3.1933539,55.9488024],[-3.1934013,55.9487979],[-3.1934598,55.9487917],[-3.1935148,55.9487844],[-3.1937078,55.9487489],[-3.1937224,55.9487465],[-3.1937125,55.9487319],[-3.193673,55.9486733],[-3.1937766,55.9486486],[-3.1938914,55.9486196],[-3.1941691,55.9485383],[-3.1942741,55.9485076],[-3.1943986,55.9484679],[-3.1944688,55.9484397],[-3.1945118,55.9484114],[-3.1945332,55.9483856],[-3.1945437,55.948356],[-3.1945433,55.9483318],[-3.194541,55.9482842],[-3.1945285,55.9482198],[-3.1945055,55.9481389],[-3.1944657,55.9480758],[-3.1943835,55.9479645],[-3.1945294,55.9479404],[-3.194555,55.947979],[-3.1946532,55.9479992],[-3.1947143,55.9479859],[-3.1947512,55.9479779],[-3.1947431,55.9479673],[-3.194798,55.9479561],[-3.1948801,55.9479389],[-3.1949332,55.9479278],[-3.1950132,55.9479059],[-3.1950238,55.947903],[-3.1950377,55.9478986],[-3.1951033,55.9478779],[-3.1951196,55.9478725],[-3.1951553,55.9478605],[-3.1951739,55.9478543],[-3.1952198,55.9478389],[-3.195246,55.9478306],[-3.1952722,55.9478223],[-3.1952678,55.9478166],[-3.1952813,55.9478125],[-3.1952948,55.9478083],[-3.1953052,55.9478091],[-3.1953241,55.9478026],[-3.1953847,55.9477825],[-3.1954397,55.947768],[-3.1954894,55.9477548],[-3.1955343,55.9477429],[-3.1955435,55.9477407],[-3.1955964,55.9477281],[-3.1956514,55.947715],[-3.1956943,55.9477057],[-3.195742,55.9476954],[-3.19578,55.9476872],[-3.1958228,55.9476779],[-3.1958289,55.9476893],[-3.1959031,55.947675],[-3.1959243,55.9476709],[-3.1959187,55.9476587],[-3.1960789,55.9476267],[-3.1960849,55.9476288],[-3.1961,55.9476198],[-3.1961857,55.9476019]]}},{"type":"Feature","properties":{"journey":"waverley-grassmarket","profile":"manual-wheelchair","label":"Manual wheelchair","minutes":47,"distanceM":2517,"ascentM":27.7,"descentM":21.8,"worstInclinePct":7.9,"worstInclineAt":"King's Stables Road","surfaceMix":{"paving slabs":1665,"unknown":145,"tarmac":615,"concrete":16,"setts":76},"kerbs":{"lowered":10,"flush":2,"raised":0,"unknown":3},"steps":0,"lifts":0,"unknownM":801,"confidence":0.29,"verdict":"passable-with-unknowns","headline":"Avoids West Bow (12.4% downhill) and The News Steps (124 steps). Adds 32 minutes.","elevation":[{"d":0,"z":null},{"d":8,"z":null},{"d":33,"z":null},{"d":38,"z":null},{"d":47,"z":50.8},{"d":49,"z":50.7},{"d":75,"z":50.7},{"d":191,"z":59.8},{"d":194,"z":null},{"d":201,"z":null},{"d":228,"z":61.3},{"d":241,"z":62},{"d":261,"z":63.4},{"d":265,"z":63.7},{"d":274,"z":63.6},{"d":292,"z":65},{"d":322,"z":65.4},{"d":376,"z":65},{"d":389,"z":64.9},{"d":431,"z":64.4},{"d":473,"z":64},{"d":525,"z":63.8},{"d":532,"z":63.8},{"d":584,"z":63.4},{"d":590,"z":63.3},{"d":596,"z":63.3},{"d":602,"z":63.1},{"d":605,"z":63.1},{"d":609,"z":63},{"d":682,"z":61.9},{"d":743,"z":61.4},{"d":759,"z":61.4},{"d":779,"z":61.3},{"d":868,"z":61.5},{"d":970,"z":61.8},{"d":1140,"z":62.8},{"d":1144,"z":62.8},{"d":1151,"z":62.9},{"d":1159,"z":62.9},{"d":1181,"z":63.1},{"d":1253,"z":63.3},{"d":1281,"z":62.8},{"d":1362,"z":60.8},{"d":1375,"z":60.5},{"d":1380,"z":60.7},{"d":1382,"z":60.9},{"d":1394,"z":61.1},{"d":1399,"z":61.2},{"d":1421,"z":61.6},{"d":1438,"z":61.3},{"d":1442,"z":61.4},{"d":1548,"z":65},{"d":1589,"z":66.5},{"d":1649,"z":69},{"d":1652,"z":69},{"d":1676,"z":68.7},{"d":1680,"z":68.8},{"d":1747,"z":69.7},{"d":1755,"z":69.8},{"d":1840,"z":70.2},{"d":1868,"z":69.3},{"d":1895,"z":68.6},{"d":1990,"z":73.5},{"d":1997,"z":73.9},{"d":2011,"z":74.3},{"d":2026,"z":73.3},{"d":2142,"z":67.4},{"d":2171,"z":65.9},{"d":2190,"z":64.8},{"d":2203,"z":64.3},{"d":2216,"z":64},{"d":2225,"z":64.1},{"d":2229,"z":63.9},{"d":2230,"z":63.9},{"d":2236,"z":64.1},{"d":2239,"z":64},{"d":2242,"z":64},{"d":2246,"z":64.1},{"d":2251,"z":64.2},{"d":2252,"z":64.4},{"d":2331,"z":65.8},{"d":2350,"z":65.8},{"d":2413,"z":63.8},{"d":2420,"z":63.9},{"d":2476,"z":65.5},{"d":2487,"z":65.9},{"d":2508,"z":67},{"d":2517,"z":67.3}]},"geometry":{"type":"LineString","coordinates":[[-3.1892774,55.9520119],[-3.1893115,55.9520813],[-3.1894161,55.9522945],[-3.189438,55.9523373],[-3.1895803,55.9523532],[-3.1895925,55.9523773],[-3.1899954,55.9523134],[-3.1908786,55.95217],[-3.1916579,55.9519831],[-3.1916354,55.9519331],[-3.1916731,55.951927],[-3.1917942,55.9519072],[-3.1919106,55.9521354],[-3.1919718,55.9522523],[-3.1920109,55.9523252],[-3.1920624,55.9524214],[-3.192081,55.9524576],[-3.1922121,55.9524352],[-3.1922814,55.952523],[-3.1922971,55.9525357],[-3.1923229,55.9525551],[-3.1923526,55.9525734],[-3.1923877,55.9525903],[-3.1924204,55.9526011],[-3.1924537,55.9526089],[-3.1924959,55.9526131],[-3.1925603,55.9526107],[-3.1928074,55.9525781],[-3.1936449,55.9524243],[-3.1938341,55.9523901],[-3.1944873,55.9522798],[-3.195127,55.9521731],[-3.1957324,55.9520759],[-3.1959377,55.9520495],[-3.1960413,55.9520307],[-3.1962461,55.9520232],[-3.1966111,55.9519603],[-3.1966459,55.951952],[-3.1966769,55.9519265],[-3.1966996,55.9518954],[-3.1967097,55.9518616],[-3.1967419,55.9518571],[-3.1968356,55.9518418],[-3.1969266,55.9518267],[-3.1970229,55.9518108],[-3.1970626,55.9518005],[-3.1971184,55.9517906],[-3.1972042,55.9517989],[-3.1972968,55.9517936],[-3.1982507,55.9516245],[-3.1991902,55.951471],[-3.1994443,55.9514288],[-3.1997393,55.9513798],[-3.1998056,55.9513684],[-3.2011102,55.9511437],[-3.2026727,55.9508724],[-3.2052862,55.950416],[-3.2053431,55.9504065],[-3.2054534,55.9503881],[-3.2055764,55.9503676],[-3.205917,55.9503081],[-3.2068237,55.9501497],[-3.2068753,55.9501313],[-3.2069035,55.9501065],[-3.2069075,55.9500825],[-3.2069021,55.9500592],[-3.2068221,55.9498082],[-3.2065409,55.9490994],[-3.2065026,55.9490542],[-3.2064222,55.9489999],[-3.2064595,55.9489622],[-3.2064782,55.9489431],[-3.2063948,55.9488481],[-3.2063838,55.9488068],[-3.2062621,55.9488164],[-3.2060359,55.9487937],[-3.2062532,55.9487539],[-3.206301,55.9487494],[-3.2062915,55.9487136],[-3.2063492,55.9487069],[-3.2063828,55.9486986],[-3.2064006,55.948677],[-3.2061914,55.9481455],[-3.2060436,55.947825],[-3.2059125,55.9474598],[-3.2057227,55.9469313],[-3.2056826,55.9469364],[-3.2053078,55.9469778],[-3.205253,55.9469582],[-3.2049392,55.9468835],[-3.2043359,55.946742],[-3.2042605,55.9467301],[-3.2042031,55.9467337],[-3.2041213,55.9467435],[-3.2040878,55.9467225],[-3.2033502,55.9465283],[-3.2032712,55.9465087],[-3.2031785,55.946482],[-3.2030991,55.9464559],[-3.2030252,55.9464284],[-3.2029312,55.9463919],[-3.2026742,55.9466017],[-3.2024247,55.9468016],[-3.202342,55.9467635],[-3.2012409,55.946257],[-3.2011523,55.946217],[-3.2010043,55.9461333],[-3.2009062,55.9461625],[-3.2007951,55.9461934],[-3.2007785,55.9461977],[-3.2007155,55.9462142],[-3.2006219,55.9462373],[-3.2005679,55.9462499],[-3.2004817,55.9462694],[-3.2003865,55.9462915],[-3.2002818,55.9463149],[-3.2001268,55.9463461],[-3.1999724,55.9463742],[-3.1998262,55.9464028],[-3.1997186,55.9464226],[-3.1996112,55.9464403],[-3.1994835,55.9464592],[-3.1994302,55.946466],[-3.1993811,55.9464716],[-3.1992997,55.9464792],[-3.1992183,55.9464849],[-3.1990033,55.946499],[-3.1988756,55.9465062],[-3.1987513,55.9465147],[-3.1987059,55.9465188],[-3.1986767,55.9465239],[-3.1986461,55.9465315],[-3.1986047,55.9465432],[-3.1985657,55.946556],[-3.1983006,55.946643],[-3.1981287,55.946704],[-3.1979473,55.9467687],[-3.197825,55.9468123],[-3.197856,55.9468412],[-3.1978641,55.9468488],[-3.1977892,55.9468751],[-3.1977815,55.946883],[-3.1977738,55.9468907],[-3.197772,55.9469078],[-3.1977316,55.9469211],[-3.1976772,55.9469389],[-3.1976124,55.9469602],[-3.1975948,55.946966],[-3.1975783,55.9469622],[-3.1975441,55.9469622],[-3.1974949,55.9469676],[-3.1974756,55.9469941],[-3.1966159,55.9472697],[-3.1965764,55.9472638],[-3.1964998,55.9472831],[-3.1966222,55.9474385],[-3.1975544,55.947211],[-3.1975928,55.9472734],[-3.1975773,55.9472717],[-3.1975648,55.9472742],[-3.197512,55.9472846],[-3.1974575,55.9472954],[-3.1974027,55.9473062],[-3.1973806,55.9473106],[-3.1973582,55.947315],[-3.1973126,55.9473241],[-3.1972809,55.9473303],[-3.1972678,55.9473329],[-3.1972751,55.947345],[-3.1971698,55.9473703],[-3.1970563,55.9473975],[-3.1970005,55.9474109],[-3.1969449,55.9474243],[-3.1968974,55.9474357],[-3.196822,55.9474536],[-3.1967961,55.9474598],[-3.1967944,55.9474602],[-3.1967701,55.947466],[-3.1966438,55.947496],[-3.1966299,55.9474994],[-3.1965757,55.9475126],[-3.1964922,55.9475328],[-3.1964723,55.9475369],[-3.1963588,55.9475616],[-3.1963236,55.947572],[-3.1962951,55.9475789],[-3.1961857,55.9476019]]}},{"type":"Feature","properties":{"journey":"waverley-grassmarket","profile":"manual-wheelchair-companion","label":"Manual wheelchair, pushed","minutes":41.1,"distanceM":2413,"ascentM":27,"descentM":21.2,"worstInclinePct":8.5,"worstInclineAt":"Grassmarket","surfaceMix":{"paving slabs":1632,"unknown":145,"tarmac":615,"concrete":9,"setts":13},"kerbs":{"lowered":10,"flush":2,"raised":0,"unknown":3},"steps":0,"lifts":0,"unknownM":801,"confidence":0.28,"verdict":"passable-with-unknowns","headline":"Avoids West Bow (12.4% downhill) and The News Steps (124 steps). Adds 27 minutes.","elevation":[{"d":0,"z":null},{"d":8,"z":null},{"d":33,"z":null},{"d":38,"z":null},{"d":47,"z":50.8},{"d":49,"z":50.7},{"d":75,"z":50.7},{"d":191,"z":59.8},{"d":194,"z":null},{"d":201,"z":null},{"d":228,"z":61.3},{"d":241,"z":62},{"d":261,"z":63.4},{"d":265,"z":63.7},{"d":274,"z":63.6},{"d":292,"z":65},{"d":322,"z":65.4},{"d":376,"z":65},{"d":389,"z":64.9},{"d":431,"z":64.4},{"d":473,"z":64},{"d":525,"z":63.8},{"d":532,"z":63.8},{"d":584,"z":63.4},{"d":590,"z":63.3},{"d":596,"z":63.3},{"d":602,"z":63.1},{"d":605,"z":63.1},{"d":609,"z":63},{"d":682,"z":61.9},{"d":743,"z":61.4},{"d":759,"z":61.4},{"d":779,"z":61.3},{"d":868,"z":61.5},{"d":970,"z":61.8},{"d":1140,"z":62.8},{"d":1144,"z":62.8},{"d":1151,"z":62.9},{"d":1159,"z":62.9},{"d":1181,"z":63.1},{"d":1253,"z":63.3},{"d":1281,"z":62.8},{"d":1362,"z":60.8},{"d":1375,"z":60.5},{"d":1380,"z":60.7},{"d":1382,"z":60.9},{"d":1394,"z":61.1},{"d":1399,"z":61.2},{"d":1421,"z":61.6},{"d":1438,"z":61.3},{"d":1442,"z":61.4},{"d":1548,"z":65},{"d":1589,"z":66.5},{"d":1649,"z":69},{"d":1652,"z":69},{"d":1676,"z":68.7},{"d":1680,"z":68.8},{"d":1747,"z":69.7},{"d":1755,"z":69.8},{"d":1840,"z":70.2},{"d":1868,"z":69.3},{"d":1895,"z":68.6},{"d":1990,"z":73.5},{"d":1997,"z":73.9},{"d":2011,"z":74.3},{"d":2026,"z":73.3},{"d":2142,"z":67.4},{"d":2171,"z":65.9},{"d":2190,"z":64.8},{"d":2203,"z":64.3},{"d":2216,"z":64},{"d":2225,"z":64.1},{"d":2229,"z":63.9},{"d":2230,"z":63.9},{"d":2236,"z":64.1},{"d":2239,"z":64},{"d":2242,"z":64},{"d":2246,"z":64.1},{"d":2251,"z":64.2},{"d":2252,"z":64.4},{"d":2277,"z":63.5},{"d":2292,"z":63},{"d":2296,"z":63.1},{"d":2317,"z":63.9},{"d":2372,"z":65.5},{"d":2383,"z":65.9},{"d":2404,"z":67},{"d":2413,"z":67.3}]},"geometry":{"type":"LineString","coordinates":[[-3.1892774,55.9520119],[-3.1893115,55.9520813],[-3.1894161,55.9522945],[-3.189438,55.9523373],[-3.1895803,55.9523532],[-3.1895925,55.9523773],[-3.1899954,55.9523134],[-3.1908786,55.95217],[-3.1916579,55.9519831],[-3.1916354,55.9519331],[-3.1916731,55.951927],[-3.1917942,55.9519072],[-3.1919106,55.9521354],[-3.1919718,55.9522523],[-3.1920109,55.9523252],[-3.1920624,55.9524214],[-3.192081,55.9524576],[-3.1922121,55.9524352],[-3.1922814,55.952523],[-3.1922971,55.9525357],[-3.1923229,55.9525551],[-3.1923526,55.9525734],[-3.1923877,55.9525903],[-3.1924204,55.9526011],[-3.1924537,55.9526089],[-3.1924959,55.9526131],[-3.1925603,55.9526107],[-3.1928074,55.9525781],[-3.1936449,55.9524243],[-3.1938341,55.9523901],[-3.1944873,55.9522798],[-3.195127,55.9521731],[-3.1957324,55.9520759],[-3.1959377,55.9520495],[-3.1960413,55.9520307],[-3.1962461,55.9520232],[-3.1966111,55.9519603],[-3.1966459,55.951952],[-3.1966769,55.9519265],[-3.1966996,55.9518954],[-3.1967097,55.9518616],[-3.1967419,55.9518571],[-3.1968356,55.9518418],[-3.1969266,55.9518267],[-3.1970229,55.9518108],[-3.1970626,55.9518005],[-3.1971184,55.9517906],[-3.1972042,55.9517989],[-3.1972968,55.9517936],[-3.1982507,55.9516245],[-3.1991902,55.951471],[-3.1994443,55.9514288],[-3.1997393,55.9513798],[-3.1998056,55.9513684],[-3.2011102,55.9511437],[-3.2026727,55.9508724],[-3.2052862,55.950416],[-3.2053431,55.9504065],[-3.2054534,55.9503881],[-3.2055764,55.9503676],[-3.205917,55.9503081],[-3.2068237,55.9501497],[-3.2068753,55.9501313],[-3.2069035,55.9501065],[-3.2069075,55.9500825],[-3.2069021,55.9500592],[-3.2068221,55.9498082],[-3.2065409,55.9490994],[-3.2065026,55.9490542],[-3.2064222,55.9489999],[-3.2064595,55.9489622],[-3.2064782,55.9489431],[-3.2063948,55.9488481],[-3.2063838,55.9488068],[-3.2062621,55.9488164],[-3.2060359,55.9487937],[-3.2062532,55.9487539],[-3.206301,55.9487494],[-3.2062915,55.9487136],[-3.2063492,55.9487069],[-3.2063828,55.9486986],[-3.2064006,55.948677],[-3.2061914,55.9481455],[-3.2060436,55.947825],[-3.2059125,55.9474598],[-3.2057227,55.9469313],[-3.2056826,55.9469364],[-3.2053078,55.9469778],[-3.205253,55.9469582],[-3.2049392,55.9468835],[-3.2043359,55.946742],[-3.2042605,55.9467301],[-3.2042031,55.9467337],[-3.2041213,55.9467435],[-3.2040878,55.9467225],[-3.2033502,55.9465283],[-3.2032712,55.9465087],[-3.2031785,55.946482],[-3.2030991,55.9464559],[-3.2030252,55.9464284],[-3.2029312,55.9463919],[-3.2026742,55.9466017],[-3.2024247,55.9468016],[-3.202342,55.9467635],[-3.2012409,55.946257],[-3.2011523,55.946217],[-3.2010043,55.9461333],[-3.2009062,55.9461625],[-3.2007951,55.9461934],[-3.2007785,55.9461977],[-3.2007155,55.9462142],[-3.2006219,55.9462373],[-3.2005679,55.9462499],[-3.2004817,55.9462694],[-3.2003865,55.9462915],[-3.2002818,55.9463149],[-3.2001268,55.9463461],[-3.1999724,55.9463742],[-3.1998262,55.9464028],[-3.1997186,55.9464226],[-3.1996112,55.9464403],[-3.1994835,55.9464592],[-3.1994302,55.946466],[-3.1993811,55.9464716],[-3.1992997,55.9464792],[-3.1992183,55.9464849],[-3.1990033,55.946499],[-3.1988756,55.9465062],[-3.1987513,55.9465147],[-3.1987059,55.9465188],[-3.1986767,55.9465239],[-3.1986461,55.9465315],[-3.1986047,55.9465432],[-3.1985657,55.946556],[-3.1983006,55.946643],[-3.1981287,55.946704],[-3.1979473,55.9467687],[-3.197825,55.9468123],[-3.197856,55.9468412],[-3.1978641,55.9468488],[-3.1977892,55.9468751],[-3.1977815,55.946883],[-3.1977738,55.9468907],[-3.197772,55.9469078],[-3.1977316,55.9469211],[-3.1976772,55.9469389],[-3.1976124,55.9469602],[-3.1975948,55.946966],[-3.1976099,55.9469695],[-3.1976397,55.9469833],[-3.1977955,55.9471551],[-3.197907,55.9472779],[-3.1978853,55.947314],[-3.1978539,55.9473003],[-3.1977513,55.9472972],[-3.1977302,55.9473012],[-3.19771,55.9473051],[-3.1976978,55.9472851],[-3.1976223,55.9472767],[-3.1975928,55.9472734],[-3.1975773,55.9472717],[-3.1975648,55.9472742],[-3.197512,55.9472846],[-3.1974575,55.9472954],[-3.1974027,55.9473062],[-3.1973806,55.9473106],[-3.1973582,55.947315],[-3.1973126,55.9473241],[-3.1972809,55.9473303],[-3.1972678,55.9473329],[-3.1972751,55.947345],[-3.1971698,55.9473703],[-3.1970563,55.9473975],[-3.1970005,55.9474109],[-3.1969449,55.9474243],[-3.1968974,55.9474357],[-3.196822,55.9474536],[-3.1967961,55.9474598],[-3.1967944,55.9474602],[-3.1967701,55.947466],[-3.1966438,55.947496],[-3.1966299,55.9474994],[-3.1965757,55.9475126],[-3.1964922,55.9475328],[-3.1964723,55.9475369],[-3.1963588,55.9475616],[-3.1963236,55.947572],[-3.1962951,55.9475789],[-3.1961857,55.9476019]]}},{"type":"Feature","properties":{"journey":"waverley-grassmarket","profile":"powerchair","label":"Powerchair","minutes":32.3,"distanceM":2414,"ascentM":27,"descentM":21.2,"worstInclinePct":8.8,"worstInclineAt":"Waverley Bridge","surfaceMix":{"paving slabs":1667,"unknown":145,"tarmac":548,"concrete":42,"setts":13},"kerbs":{"lowered":10,"flush":2,"raised":0,"unknown":3},"steps":0,"lifts":0,"unknownM":793,"confidence":0.29,"verdict":"passable-with-unknowns","headline":"Avoids West Bow (12.4% downhill) and The News Steps (124 steps). Adds 22 minutes.","elevation":[{"d":0,"z":null},{"d":8,"z":null},{"d":33,"z":null},{"d":38,"z":null},{"d":47,"z":50.8},{"d":49,"z":50.7},{"d":75,"z":50.7},{"d":191,"z":59.8},{"d":194,"z":null},{"d":220,"z":61.4},{"d":233,"z":61.8},{"d":241,"z":62.4},{"d":253,"z":63.4},{"d":262,"z":63.4},{"d":266,"z":63.7},{"d":275,"z":63.6},{"d":293,"z":65},{"d":323,"z":65.4},{"d":377,"z":65},{"d":390,"z":64.9},{"d":432,"z":64.4},{"d":474,"z":64},{"d":526,"z":63.8},{"d":533,"z":63.8},{"d":585,"z":63.4},{"d":591,"z":63.3},{"d":597,"z":63.3},{"d":603,"z":63.1},{"d":606,"z":63.1},{"d":609,"z":63},{"d":683,"z":61.9},{"d":744,"z":61.4},{"d":760,"z":61.4},{"d":780,"z":61.3},{"d":869,"z":61.5},{"d":971,"z":61.8},{"d":1141,"z":62.8},{"d":1145,"z":62.8},{"d":1152,"z":62.9},{"d":1160,"z":62.9},{"d":1182,"z":63.1},{"d":1254,"z":63.3},{"d":1282,"z":62.8},{"d":1363,"z":60.8},{"d":1376,"z":60.5},{"d":1381,"z":60.7},{"d":1383,"z":60.9},{"d":1395,"z":61.1},{"d":1400,"z":61.2},{"d":1422,"z":61.6},{"d":1439,"z":61.3},{"d":1443,"z":61.4},{"d":1549,"z":65},{"d":1590,"z":66.5},{"d":1650,"z":69},{"d":1653,"z":69},{"d":1677,"z":68.7},{"d":1681,"z":68.8},{"d":1748,"z":69.7},{"d":1756,"z":69.8},{"d":1841,"z":70.2},{"d":1869,"z":69.3},{"d":1896,"z":68.6},{"d":1991,"z":73.5},{"d":1998,"z":73.9},{"d":2012,"z":74.3},{"d":2027,"z":73.3},{"d":2143,"z":67.4},{"d":2172,"z":65.9},{"d":2191,"z":64.8},{"d":2204,"z":64.3},{"d":2217,"z":64},{"d":2226,"z":64.1},{"d":2230,"z":63.9},{"d":2231,"z":63.9},{"d":2237,"z":64.1},{"d":2240,"z":64},{"d":2243,"z":64},{"d":2247,"z":64.1},{"d":2252,"z":64.2},{"d":2253,"z":64.4},{"d":2278,"z":63.5},{"d":2293,"z":63},{"d":2297,"z":63.1},{"d":2318,"z":63.9},{"d":2373,"z":65.5},{"d":2384,"z":65.9},{"d":2405,"z":67},{"d":2414,"z":67.3}]},"geometry":{"type":"LineString","coordinates":[[-3.1892774,55.9520119],[-3.1893115,55.9520813],[-3.1894161,55.9522945],[-3.189438,55.9523373],[-3.1895803,55.9523532],[-3.1895925,55.9523773],[-3.1899954,55.9523134],[-3.1908786,55.95217],[-3.1916579,55.9519831],[-3.1916354,55.9519331],[-3.1916731,55.951927],[-3.1917816,55.9521562],[-3.1918398,55.952273],[-3.1918724,55.9523382],[-3.1918944,55.9523823],[-3.1919246,55.9524429],[-3.1920624,55.9524214],[-3.192081,55.9524576],[-3.1922121,55.9524352],[-3.1922814,55.952523],[-3.1922971,55.9525357],[-3.1923229,55.9525551],[-3.1923526,55.9525734],[-3.1923877,55.9525903],[-3.1924204,55.9526011],[-3.1924537,55.9526089],[-3.1924959,55.9526131],[-3.1925603,55.9526107],[-3.1928074,55.9525781],[-3.1936449,55.9524243],[-3.1938341,55.9523901],[-3.1944873,55.9522798],[-3.195127,55.9521731],[-3.1957324,55.9520759],[-3.1959377,55.9520495],[-3.1960413,55.9520307],[-3.1962461,55.9520232],[-3.1966111,55.9519603],[-3.1966459,55.951952],[-3.1966769,55.9519265],[-3.1966996,55.9518954],[-3.1967097,55.9518616],[-3.1967419,55.9518571],[-3.1968356,55.9518418],[-3.1969266,55.9518267],[-3.1970229,55.9518108],[-3.1970626,55.9518005],[-3.1971184,55.9517906],[-3.1972042,55.9517989],[-3.1972968,55.9517936],[-3.1982507,55.9516245],[-3.1991902,55.951471],[-3.1994443,55.9514288],[-3.1997393,55.9513798],[-3.1998056,55.9513684],[-3.2011102,55.9511437],[-3.2026727,55.9508724],[-3.2052862,55.950416],[-3.2053431,55.9504065],[-3.2054534,55.9503881],[-3.2055764,55.9503676],[-3.205917,55.9503081],[-3.2068237,55.9501497],[-3.2068753,55.9501313],[-3.2069035,55.9501065],[-3.2069075,55.9500825],[-3.2069021,55.9500592],[-3.2068221,55.9498082],[-3.2065409,55.9490994],[-3.2065026,55.9490542],[-3.2064222,55.9489999],[-3.2064595,55.9489622],[-3.2064782,55.9489431],[-3.2063948,55.9488481],[-3.2063838,55.9488068],[-3.2062621,55.9488164],[-3.2060359,55.9487937],[-3.2062532,55.9487539],[-3.206301,55.9487494],[-3.2062915,55.9487136],[-3.2063492,55.9487069],[-3.2063828,55.9486986],[-3.2064006,55.948677],[-3.2061914,55.9481455],[-3.2060436,55.947825],[-3.2059125,55.9474598],[-3.2057227,55.9469313],[-3.2056826,55.9469364],[-3.2053078,55.9469778],[-3.205253,55.9469582],[-3.2049392,55.9468835],[-3.2043359,55.946742],[-3.2042605,55.9467301],[-3.2042031,55.9467337],[-3.2041213,55.9467435],[-3.2040878,55.9467225],[-3.2033502,55.9465283],[-3.2032712,55.9465087],[-3.2031785,55.946482],[-3.2030991,55.9464559],[-3.2030252,55.9464284],[-3.2029312,55.9463919],[-3.2026742,55.9466017],[-3.2024247,55.9468016],[-3.202342,55.9467635],[-3.2012409,55.946257],[-3.2011523,55.946217],[-3.2010043,55.9461333],[-3.2009062,55.9461625],[-3.2007951,55.9461934],[-3.2007785,55.9461977],[-3.2007155,55.9462142],[-3.2006219,55.9462373],[-3.2005679,55.9462499],[-3.2004817,55.9462694],[-3.2003865,55.9462915],[-3.2002818,55.9463149],[-3.2001268,55.9463461],[-3.1999724,55.9463742],[-3.1998262,55.9464028],[-3.1997186,55.9464226],[-3.1996112,55.9464403],[-3.1994835,55.9464592],[-3.1994302,55.946466],[-3.1993811,55.9464716],[-3.1992997,55.9464792],[-3.1992183,55.9464849],[-3.1990033,55.946499],[-3.1988756,55.9465062],[-3.1987513,55.9465147],[-3.1987059,55.9465188],[-3.1986767,55.9465239],[-3.1986461,55.9465315],[-3.1986047,55.9465432],[-3.1985657,55.946556],[-3.1983006,55.946643],[-3.1981287,55.946704],[-3.1979473,55.9467687],[-3.197825,55.9468123],[-3.197856,55.9468412],[-3.1978641,55.9468488],[-3.1977892,55.9468751],[-3.1977815,55.946883],[-3.1977738,55.9468907],[-3.197772,55.9469078],[-3.1977316,55.9469211],[-3.1976772,55.9469389],[-3.1976124,55.9469602],[-3.1975948,55.946966],[-3.1976099,55.9469695],[-3.1976397,55.9469833],[-3.1977955,55.9471551],[-3.197907,55.9472779],[-3.1978853,55.947314],[-3.1978539,55.9473003],[-3.1977513,55.9472972],[-3.1977302,55.9473012],[-3.19771,55.9473051],[-3.1976978,55.9472851],[-3.1976223,55.9472767],[-3.1975928,55.9472734],[-3.1975773,55.9472717],[-3.1975648,55.9472742],[-3.197512,55.9472846],[-3.1974575,55.9472954],[-3.1974027,55.9473062],[-3.1973806,55.9473106],[-3.1973582,55.947315],[-3.1973126,55.9473241],[-3.1972809,55.9473303],[-3.1972678,55.9473329],[-3.1972751,55.947345],[-3.1971698,55.9473703],[-3.1970563,55.9473975],[-3.1970005,55.9474109],[-3.1969449,55.9474243],[-3.1968974,55.9474357],[-3.196822,55.9474536],[-3.1967961,55.9474598],[-3.1967944,55.9474602],[-3.1967701,55.947466],[-3.1966438,55.947496],[-3.1966299,55.9474994],[-3.1965757,55.9475126],[-3.1964922,55.9475328],[-3.1964723,55.9475369],[-3.1963588,55.9475616],[-3.1963236,55.947572],[-3.1962951,55.9475789],[-3.1961857,55.9476019]]}},{"type":"Feature","properties":{"journey":"royal-mile-victoria-street","profile":"walking","label":"Walking","minutes":4,"distanceM":289,"ascentM":4.3,"descentM":7.4,"worstInclinePct":25.1,"worstInclineAt":"Victoria Terrace","surfaceMix":{"setts":178,"paving slabs":62,"unknown":41,"concrete":7},"kerbs":{"lowered":0,"flush":0,"raised":0,"unknown":0},"steps":2,"lifts":0,"unknownM":0,"confidence":0.34,"verdict":"passable","headline":"This is the most direct route that fits your settings.","elevation":[{"d":0,"z":87.35},{"d":13,"z":87.7},{"d":33,"z":87.9},{"d":37,"z":88},{"d":61,"z":88.4},{"d":63,"z":88.5},{"d":111,"z":89.7},{"d":127,"z":90.2},{"d":134,"z":90.5},{"d":139,"z":90.6},{"d":145,"z":90.8},{"d":158,"z":91.3},{"d":164,"z":91.2},{"d":166,"z":91.8},{"d":171,"z":91.9},{"d":184,"z":91.7},{"d":207,"z":88.5},{"d":217,"z":83.6},{"d":219,"z":83.6},{"d":245,"z":82.1},{"d":257,"z":81.4},{"d":258,"z":81.8},{"d":260,"z":81.2},{"d":267,"z":81},{"d":282,"z":80},{"d":289,"z":79.9}]},"geometry":{"type":"LineString","coordinates":[[-3.190985,55.9497314],[-3.1911812,55.9496966],[-3.1914874,55.9496387],[-3.1914946,55.9496372],[-3.1915488,55.9496259],[-3.1919088,55.9495508],[-3.1919426,55.9495437],[-3.1920037,55.9495336],[-3.1922453,55.9494905],[-3.1925166,55.9494516],[-3.1926783,55.9494273],[-3.1929229,55.9493907],[-3.1930361,55.949374],[-3.1931091,55.9493633],[-3.1932119,55.9493492],[-3.1934185,55.9493175],[-3.1933706,55.9492805],[-3.1933568,55.9492564],[-3.1933346,55.9492175],[-3.193282,55.9491078],[-3.1932673,55.9490987],[-3.1932512,55.9490715],[-3.1932536,55.9490559],[-3.1931697,55.9489126],[-3.1931164,55.9488225],[-3.1931085,55.9488052],[-3.1931537,55.9488066],[-3.1931989,55.9488071],[-3.193248,55.9488073],[-3.1933005,55.9488053],[-3.1933539,55.9488024],[-3.1934013,55.9487979],[-3.1934598,55.9487917],[-3.1935148,55.9487844],[-3.1937078,55.9487489],[-3.1937224,55.9487465],[-3.1937125,55.9487319],[-3.193673,55.9486733],[-3.1937766,55.9486486],[-3.1938914,55.9486196],[-3.1938503,55.9485572]]}},{"type":"Feature","properties":{"journey":"royal-mile-victoria-street","profile":"manual-wheelchair","label":"Manual wheelchair","minutes":5.9,"distanceM":315,"ascentM":2.4,"descentM":9.9,"worstInclinePct":-7.3,"worstInclineAt":"Victoria Street","surfaceMix":{"setts":219,"tarmac":88,"concrete":7},"kerbs":{"lowered":0,"flush":0,"raised":0,"unknown":0},"steps":0,"lifts":0,"unknownM":199,"confidence":0.37,"verdict":"passable-with-unknowns","headline":"Avoids Fisher's Close (4 steps) and Victoria Terrace (10.2% downhill). Adds 1 minute.","elevation":[{"d":0,"z":87.35},{"d":13,"z":87.7},{"d":33,"z":87.9},{"d":37,"z":88},{"d":61,"z":88.4},{"d":63,"z":88.5},{"d":111,"z":89.7},{"d":124,"z":89.2},{"d":183,"z":86.6},{"d":186,"z":86.5},{"d":199,"z":86},{"d":272,"z":82.3},{"d":293,"z":81},{"d":307,"z":80},{"d":315,"z":79.9}]},"geometry":{"type":"LineString","coordinates":[[-3.190985,55.9497314],[-3.1911812,55.9496966],[-3.1914874,55.9496387],[-3.1914946,55.9496372],[-3.1915488,55.9496259],[-3.1919088,55.9495508],[-3.1919426,55.9495437],[-3.1920037,55.9495336],[-3.1922453,55.9494905],[-3.1925166,55.9494516],[-3.1926783,55.9494273],[-3.1926279,55.9493401],[-3.1926106,55.9493112],[-3.1923116,55.9488121],[-3.1922952,55.9487848],[-3.1922286,55.9486736],[-3.1923035,55.9486576],[-3.1923825,55.9486429],[-3.1924491,55.9486334],[-3.1925058,55.9486287],[-3.1925718,55.9486314],[-3.192635,55.9486414],[-3.1927328,55.9486637],[-3.1928402,55.9486913],[-3.1929956,55.9487187],[-3.1930889,55.948728],[-3.19318,55.9487312],[-3.1932688,55.9487299],[-3.1933593,55.9487228],[-3.1934516,55.9487123],[-3.1935373,55.9486997],[-3.1936069,55.9486862],[-3.193673,55.9486733],[-3.1937766,55.9486486],[-3.1938914,55.9486196],[-3.1938503,55.9485572]]}},{"type":"Feature","properties":{"journey":"royal-mile-victoria-street","profile":"manual-wheelchair-companion","label":"Manual wheelchair, pushed","minutes":5.4,"distanceM":315,"ascentM":2.4,"descentM":9.9,"worstInclinePct":-7.3,"worstInclineAt":"Victoria Street","surfaceMix":{"setts":219,"tarmac":88,"concrete":7},"kerbs":{"lowered":0,"flush":0,"raised":0,"unknown":0},"steps":0,"lifts":0,"unknownM":199,"confidence":0.37,"verdict":"passable-with-unknowns","headline":"Avoids Fisher's Close (4 steps) and Victoria Terrace (10.2% downhill). Adds 1 minute.","elevation":[{"d":0,"z":87.35},{"d":13,"z":87.7},{"d":33,"z":87.9},{"d":37,"z":88},{"d":61,"z":88.4},{"d":63,"z":88.5},{"d":111,"z":89.7},{"d":124,"z":89.2},{"d":183,"z":86.6},{"d":186,"z":86.5},{"d":199,"z":86},{"d":272,"z":82.3},{"d":293,"z":81},{"d":307,"z":80},{"d":315,"z":79.9}]},"geometry":{"type":"LineString","coordinates":[[-3.190985,55.9497314],[-3.1911812,55.9496966],[-3.1914874,55.9496387],[-3.1914946,55.9496372],[-3.1915488,55.9496259],[-3.1919088,55.9495508],[-3.1919426,55.9495437],[-3.1920037,55.9495336],[-3.1922453,55.9494905],[-3.1925166,55.9494516],[-3.1926783,55.9494273],[-3.1926279,55.9493401],[-3.1926106,55.9493112],[-3.1923116,55.9488121],[-3.1922952,55.9487848],[-3.1922286,55.9486736],[-3.1923035,55.9486576],[-3.1923825,55.9486429],[-3.1924491,55.9486334],[-3.1925058,55.9486287],[-3.1925718,55.9486314],[-3.192635,55.9486414],[-3.1927328,55.9486637],[-3.1928402,55.9486913],[-3.1929956,55.9487187],[-3.1930889,55.948728],[-3.19318,55.9487312],[-3.1932688,55.9487299],[-3.1933593,55.9487228],[-3.1934516,55.9487123],[-3.1935373,55.9486997],[-3.1936069,55.9486862],[-3.193673,55.9486733],[-3.1937766,55.9486486],[-3.1938914,55.9486196],[-3.1938503,55.9485572]]}},{"type":"Feature","properties":{"journey":"royal-mile-victoria-street","profile":"powerchair","label":"Powerchair","minutes":4.2,"distanceM":315,"ascentM":2.4,"descentM":9.9,"worstInclinePct":-7.3,"worstInclineAt":"Victoria Street","surfaceMix":{"setts":219,"tarmac":88,"concrete":7},"kerbs":{"lowered":0,"flush":0,"raised":0,"unknown":0},"steps":0,"lifts":0,"unknownM":199,"confidence":0.37,"verdict":"passable-with-unknowns","headline":"Avoids Fisher's Close (4 steps) and Victoria Terrace (10.2% downhill). Adds 1 minute.","elevation":[{"d":0,"z":87.35},{"d":13,"z":87.7},{"d":33,"z":87.9},{"d":37,"z":88},{"d":61,"z":88.4},{"d":63,"z":88.5},{"d":111,"z":89.7},{"d":124,"z":89.2},{"d":183,"z":86.6},{"d":186,"z":86.5},{"d":199,"z":86},{"d":272,"z":82.3},{"d":293,"z":81},{"d":307,"z":80},{"d":315,"z":79.9}]},"geometry":{"type":"LineString","coordinates":[[-3.190985,55.9497314],[-3.1911812,55.9496966],[-3.1914874,55.9496387],[-3.1914946,55.9496372],[-3.1915488,55.9496259],[-3.1919088,55.9495508],[-3.1919426,55.9495437],[-3.1920037,55.9495336],[-3.1922453,55.9494905],[-3.1925166,55.9494516],[-3.1926783,55.9494273],[-3.1926279,55.9493401],[-3.1926106,55.9493112],[-3.1923116,55.9488121],[-3.1922952,55.9487848],[-3.1922286,55.9486736],[-3.1923035,55.9486576],[-3.1923825,55.9486429],[-3.1924491,55.9486334],[-3.1925058,55.9486287],[-3.1925718,55.9486314],[-3.192635,55.9486414],[-3.1927328,55.9486637],[-3.1928402,55.9486913],[-3.1929956,55.9487187],[-3.1930889,55.948728],[-3.19318,55.9487312],[-3.1932688,55.9487299],[-3.1933593,55.9487228],[-3.1934516,55.9487123],[-3.1935373,55.9486997],[-3.1936069,55.9486862],[-3.193673,55.9486733],[-3.1937766,55.9486486],[-3.1938914,55.9486196],[-3.1938503,55.9485572]]}},{"type":"Feature","properties":{"journey":"market-street-high-street","profile":"walking","label":"Walking","minutes":3.9,"distanceM":191,"ascentM":9.2,"descentM":0,"worstInclinePct":24.2,"worstInclineAt":"Fleshmarket Close","surfaceMix":{"tarmac":70,"paving slabs":104,"concrete":17},"kerbs":{"lowered":0,"flush":0,"raised":1,"unknown":0},"steps":3,"lifts":0,"unknownM":0,"confidence":0.24,"verdict":"passable","headline":"This is the most direct route that fits your settings.","elevation":[{"d":0,"z":56.43},{"d":70,"z":57.8},{"d":83,"z":58},{"d":100,"z":63.5},{"d":102,"z":63.9},{"d":117,"z":67.4},{"d":145,"z":75.1},{"d":156,"z":75.5},{"d":191,"z":79.3}]},"geometry":{"type":"LineString","coordinates":[[-3.1900871,55.9510508],[-3.1899419,55.9510684],[-3.1897991,55.9510905],[-3.1896907,55.9511094],[-3.1895175,55.9511395],[-3.1890089,55.9512248],[-3.1889832,55.951176],[-3.188917,55.9511869],[-3.1889044,55.9511631],[-3.188828,55.9510127],[-3.1888175,55.9509941],[-3.1887976,55.9509589],[-3.1887605,55.9508657],[-3.1886622,55.9506193],[-3.1886275,55.9505232],[-3.1886014,55.9504328],[-3.1885269,55.9502136]]}},{"type":"Feature","properties":{"journey":"market-street-high-street","profile":"manual-wheelchair","label":"Manual wheelchair","minutes":18.6,"distanceM":798,"ascentM":14.8,"descentM":0.2,"worstInclinePct":6.3,"worstInclineAt":"North Bridge","surfaceMix":{"tarmac":70,"paving slabs":529,"unknown":188,"concrete":8,"setts":3},"kerbs":{"lowered":0,"flush":1,"raised":0,"unknown":0},"steps":0,"lifts":3,"unknownM":338,"confidence":0.2,"verdict":"passable-with-unknowns","headline":"Avoids Scotsman Steps (steps). Adds 14 minutes.","elevation":[{"d":0,"z":56.43},{"d":70,"z":57.8},{"d":75,"z":57.8},{"d":90,"z":52.4},{"d":93,"z":null},{"d":101,"z":null},{"d":110,"z":null},{"d":119,"z":null},{"d":120,"z":null},{"d":130,"z":null},{"d":152,"z":null},{"d":161,"z":null},{"d":237,"z":null},{"d":238,"z":null},{"d":261,"z":null},{"d":278,"z":null},{"d":278,"z":null},{"d":287,"z":null},{"d":343,"z":66.8},{"d":352,"z":66.8},{"d":405,"z":66.8},{"d":416,"z":66.6},{"d":476,"z":67.6},{"d":645,"z":73.8},{"d":646,"z":73.9},{"d":666,"z":74.5},{"d":704,"z":76},{"d":752,"z":78.1},{"d":770,"z":78.7},{"d":795,"z":79.9},{"d":798,"z":80}]},"geometry":{"type":"LineString","coordinates":[[-3.1900871,55.9510508],[-3.1899419,55.9510684],[-3.1897991,55.9510905],[-3.1896907,55.9511094],[-3.1895175,55.9511395],[-3.1890089,55.9512248],[-3.1890323,55.9512689],[-3.1888619,55.9512945],[-3.1888788,55.951329],[-3.1888923,55.9513544],[-3.1889572,55.9513441],[-3.1889722,55.9513738],[-3.1889942,55.9514173],[-3.1889293,55.9514276],[-3.1889692,55.9515064],[-3.1889749,55.9515177],[-3.189014,55.9515949],[-3.1890181,55.951603],[-3.189116,55.9517963],[-3.1891531,55.9518746],[-3.1894869,55.9525288],[-3.1894913,55.9525375],[-3.18985,55.9524805],[-3.1900486,55.952449],[-3.1900647,55.9524808],[-3.1900647,55.9524808],[-3.1900799,55.9525103],[-3.1901056,55.9525626],[-3.1900703,55.9525876],[-3.1901887,55.9528006],[-3.1901709,55.9528483],[-3.1902462,55.9529912],[-3.1902718,55.9530398],[-3.1901441,55.9530616],[-3.1893728,55.9531849],[-3.1893185,55.9531936],[-3.1892189,55.9532095],[-3.1891653,55.9531795],[-3.1889135,55.9526597],[-3.1881902,55.9511952],[-3.188184,55.9511827],[-3.1880968,55.9510107],[-3.1879375,55.9506875],[-3.1877345,55.9502705],[-3.1877218,55.9502444],[-3.187733,55.9502158],[-3.1877773,55.9502008],[-3.1878121,55.9501948],[-3.1877903,55.950135],[-3.1881778,55.9500823],[-3.1882248,55.9500759]]}},{"type":"Feature","properties":{"journey":"market-street-high-street","profile":"manual-wheelchair-companion","label":"Manual wheelchair, pushed","minutes":17.2,"distanceM":798,"ascentM":14.8,"descentM":0.2,"worstInclinePct":6.3,"worstInclineAt":"North Bridge","surfaceMix":{"tarmac":70,"paving slabs":529,"unknown":188,"concrete":8,"setts":3},"kerbs":{"lowered":0,"flush":1,"raised":0,"unknown":0},"steps":0,"lifts":3,"unknownM":338,"confidence":0.2,"verdict":"passable-with-unknowns","headline":"Avoids Scotsman Steps (steps). Adds 13 minutes.","elevation":[{"d":0,"z":56.43},{"d":70,"z":57.8},{"d":75,"z":57.8},{"d":90,"z":52.4},{"d":93,"z":null},{"d":101,"z":null},{"d":110,"z":null},{"d":119,"z":null},{"d":120,"z":null},{"d":130,"z":null},{"d":152,"z":null},{"d":161,"z":null},{"d":237,"z":null},{"d":238,"z":null},{"d":261,"z":null},{"d":278,"z":null},{"d":278,"z":null},{"d":287,"z":null},{"d":343,"z":66.8},{"d":352,"z":66.8},{"d":405,"z":66.8},{"d":416,"z":66.6},{"d":476,"z":67.6},{"d":645,"z":73.8},{"d":646,"z":73.9},{"d":666,"z":74.5},{"d":704,"z":76},{"d":752,"z":78.1},{"d":770,"z":78.7},{"d":795,"z":79.9},{"d":798,"z":80}]},"geometry":{"type":"LineString","coordinates":[[-3.1900871,55.9510508],[-3.1899419,55.9510684],[-3.1897991,55.9510905],[-3.1896907,55.9511094],[-3.1895175,55.9511395],[-3.1890089,55.9512248],[-3.1890323,55.9512689],[-3.1888619,55.9512945],[-3.1888788,55.951329],[-3.1888923,55.9513544],[-3.1889572,55.9513441],[-3.1889722,55.9513738],[-3.1889942,55.9514173],[-3.1889293,55.9514276],[-3.1889692,55.9515064],[-3.1889749,55.9515177],[-3.189014,55.9515949],[-3.1890181,55.951603],[-3.189116,55.9517963],[-3.1891531,55.9518746],[-3.1894869,55.9525288],[-3.1894913,55.9525375],[-3.18985,55.9524805],[-3.1900486,55.952449],[-3.1900647,55.9524808],[-3.1900647,55.9524808],[-3.1900799,55.9525103],[-3.1901056,55.9525626],[-3.1900703,55.9525876],[-3.1901887,55.9528006],[-3.1901709,55.9528483],[-3.1902462,55.9529912],[-3.1902718,55.9530398],[-3.1901441,55.9530616],[-3.1893728,55.9531849],[-3.1893185,55.9531936],[-3.1892189,55.9532095],[-3.1891653,55.9531795],[-3.1889135,55.9526597],[-3.1881902,55.9511952],[-3.188184,55.9511827],[-3.1880968,55.9510107],[-3.1879375,55.9506875],[-3.1877345,55.9502705],[-3.1877218,55.9502444],[-3.187733,55.9502158],[-3.1877773,55.9502008],[-3.1878121,55.9501948],[-3.1877903,55.950135],[-3.1881778,55.9500823],[-3.1882248,55.9500759]]}},{"type":"Feature","properties":{"journey":"market-street-high-street","profile":"powerchair","label":"Powerchair","minutes":14.6,"distanceM":981,"ascentM":22.7,"descentM":0.5,"worstInclinePct":10.1,"worstInclineAt":"Waverley Bridge","surfaceMix":{"tarmac":70,"paving slabs":725,"concrete":183,"setts":3},"kerbs":{"lowered":0,"flush":1,"raised":0,"unknown":0},"steps":0,"lifts":0,"unknownM":187,"confidence":0.28,"verdict":"passable-with-unknowns","headline":"Avoids Scotsman Steps (steps). Adds 11 minutes.","elevation":[{"d":0,"z":56.43},{"d":70,"z":57.8},{"d":75,"z":57.8},{"d":220,"z":60.2},{"d":235,"z":59.9},{"d":280,"z":null},{"d":325,"z":null},{"d":351,"z":61.4},{"d":365,"z":61.8},{"d":372,"z":62.4},{"d":385,"z":63.4},{"d":398,"z":64.5},{"d":405,"z":65.1},{"d":411,"z":65.7},{"d":433,"z":66.8},{"d":445,"z":66.8},{"d":451,"z":66.8},{"d":461,"z":66.8},{"d":467,"z":66.8},{"d":471,"z":66.8},{"d":475,"z":66.8},{"d":484,"z":66.9},{"d":492,"z":66.8},{"d":500,"z":66.8},{"d":521,"z":66.8},{"d":526,"z":66.8},{"d":534,"z":66.8},{"d":588,"z":66.8},{"d":599,"z":66.6},{"d":659,"z":67.6},{"d":828,"z":73.8},{"d":829,"z":73.9},{"d":849,"z":74.5},{"d":886,"z":76},{"d":934,"z":78.1},{"d":953,"z":78.7},{"d":978,"z":79.9},{"d":981,"z":80}]},"geometry":{"type":"LineString","coordinates":[[-3.1900871,55.9510508],[-3.1899419,55.9510684],[-3.1897991,55.9510905],[-3.1896907,55.9511094],[-3.1895175,55.9511395],[-3.1890089,55.9512248],[-3.1890323,55.9512689],[-3.1895912,55.9511783],[-3.1897186,55.9511611],[-3.1903355,55.9510867],[-3.1905608,55.9510574],[-3.190711,55.9510289],[-3.1909243,55.9509839],[-3.1910369,55.9509621],[-3.1910919,55.9509576],[-3.1911348,55.9509598],[-3.1911804,55.9509688],[-3.1912126,55.9509846],[-3.191237,55.9510113],[-3.1913011,55.9511409],[-3.1914869,55.9515336],[-3.1915875,55.951746],[-3.1916731,55.951927],[-3.1917816,55.9521562],[-3.1918398,55.952273],[-3.1918724,55.9523382],[-3.1918944,55.9523823],[-3.1919246,55.9524429],[-3.1919843,55.9525623],[-3.1919904,55.9525772],[-3.1919949,55.9525922],[-3.1919991,55.952614],[-3.1919993,55.9526224],[-3.1919977,55.9526339],[-3.1919931,55.9526454],[-3.1919847,55.952659],[-3.1919724,55.9526739],[-3.191954,55.9526909],[-3.1919327,55.9527061],[-3.1919076,55.9527202],[-3.1918848,55.9527304],[-3.1918554,55.9527407],[-3.1918134,55.9527512],[-3.1917,55.9527857],[-3.1915052,55.9528187],[-3.1914231,55.9528326],[-3.1912565,55.9528608],[-3.1911649,55.9528763],[-3.1911141,55.9528849],[-3.1910435,55.9528968],[-3.1909153,55.9529181],[-3.190789,55.9529399],[-3.1906661,55.9529605],[-3.1903389,55.9530161],[-3.1902718,55.9530398],[-3.1901441,55.9530616],[-3.1893728,55.9531849],[-3.1893185,55.9531936],[-3.1892189,55.9532095],[-3.1891653,55.9531795],[-3.1889135,55.9526597],[-3.1881902,55.9511952],[-3.188184,55.9511827],[-3.1880968,55.9510107],[-3.1879375,55.9506875],[-3.1877345,55.9502705],[-3.1877218,55.9502444],[-3.187733,55.9502158],[-3.1877773,55.9502008],[-3.1878121,55.9501948],[-3.1877903,55.950135],[-3.1881778,55.9500823],[-3.1882248,55.9500759]]}}]}